OBJECT_NAME,OBJECT_ID,EPOCH,MEAN_MOTION,ECCENTRICITY,INCLINATION,RA_OF_ASC_NODE,ARG_OF_PERICENTER,MEAN_ANOMALY,EPHEMERIS_TYPE,CLASSIFICATION_TYPE,NORAD_CAT_ID,ELEMENT_SET_NO,REV_AT_EPOCH,BSTAR,MEAN_MOTION_DOT,MEAN_MOTION_DDOT
ONEWEB-0236,2021-045AG,2026-06-09T04:33:20.361600,13.15548047,.00020699,87.9000,260.7998,103.3067,256.8295,0,U,48797,999,24320,.45786057E-3,.185E-5,0
ONEWEB-0248,2021-045AH,2026-06-09T06:41:05.824032,13.15547205,.00015862,87.9011,260.7649,112.3665,247.7634,0,U,48798,999,24337,.34861577E-3,.144E-5,0
ONEWEB-0225,2021-045AJ,2026-06-09T07:13:03.807264,13.15548803,.0001372,87.9007,260.7687,102.5539,257.5745,0,U,48799,999,24338,-.22067234E-3,-.7E-6,0
ONEWEB-0215,2021-045AK,2026-06-09T06:29:40.417152,13.15550627,.00012616,87.9013,260.7568,111.1268,248.9997,0,U,48800,999,24325,.54398842E-3,.218E-5,0
ONEWEB-0216,2021-045AL,2026-06-09T06:43:24.240288,13.15548740,.00019751,87.9010,260.7701,98.7649,261.3705,0,U,48801,999,24326,.3736613E-3,.153E-5,0
ONEWEB-0239,2021-045AM,2026-06-09T06:50:14.426880,13.15548640,.00013732,87.8999,260.7762,122.0518,238.0746,0,U,48802,999,24330,.21237113E-3,.93E-6,0
ONEWEB-0249,2021-060A,2026-06-09T05:24:18.128448,13.16594978,.00020648,87.9100,230.3592,102.0159,258.1203,0,U,48967,999,23856,-.17957643E-3,-.56E-6,0
ONEWEB-0250,2021-060B,2026-06-09T05:34:46.604640,13.25833213,.00025596,87.9102,228.1398,120.9071,239.2317,0,U,48968,999,23916,-.51138129E-4,-.9E-7,0
ONEWEB-0252,2021-060D,2026-06-08T17:22:42.314304,13.16593087,.00019758,87.9103,230.4506,92.3981,267.7376,0,U,48970,999,23854,-.10036856E-3,-.26E-6,0
ONEWEB-0253,2021-060E,2026-06-08T22:35:03.048864,13.16593100,.0002018,87.9098,230.4132,103.0543,257.0813,0,U,48971,999,23850,.16880584E-3,.77E-6,0
ONEWEB-0254,2021-060F,2026-06-09T02:27:36.588384,13.16594179,.00018248,87.9099,230.3784,107.1760,252.9570,0,U,48972,999,23852,.1718625E-3,.79E-6,0
ONEWEB-0255,2021-060G,2026-06-09T05:11:45.790080,13.16594517,.00019225,87.9100,230.3626,101.6127,258.5220,0,U,48973,999,23861,.75485028E-4,.42E-6,0
ONEWEB-0256,2021-060H,2026-06-09T05:49:21.733824,13.16593242,.00021176,87.9094,230.3619,96.6897,263.4475,0,U,48974,999,23858,.53087979E-4,.33E-6,0
ONEWEB-0257,2021-060J,2026-06-09T04:46:40.576800,13.16594632,.00019079,87.9101,230.3572,97.3887,262.7461,0,U,48975,999,23853,.11860694E-3,.58E-6,0
ONEWEB-0258,2021-060K,2026-06-09T04:48:57.552768,13.16594356,.00020486,87.9102,230.3686,100.6781,259.4580,0,U,48976,999,23854,.16951584E-3,.78E-6,0
ONEWEB-0259,2021-060L,2026-06-09T04:39:50.737536,13.16594917,.00019643,87.9101,230.3693,104.1919,255.9430,0,U,48977,999,23857,.11981935E-3,.59E-6,0
ONEWEB-0260,2021-060M,2026-06-09T04:27:17.559360,13.16593807,.00020951,87.9095,230.3730,88.1170,272.0201,0,U,48978,999,23855,.3162366E-3,.134E-5,0
ONEWEB-0261,2021-060N,2026-06-09T05:33:24.024384,13.16595258,.00017364,87.9097,230.3639,97.0082,263.1246,0,U,48979,999,23861,-.15357056E-3,-.46E-6,0
ONEWEB-0262,2021-060P,2026-06-09T05:04:55.260480,13.16594562,.00019783,87.9100,230.3533,107.3983,252.7365,0,U,48980,999,23857,.18545187E-4,.2E-6,0
ONEWEB-0263,2021-060Q,2026-06-09T05:50:31.080192,13.16594515,.00016918,87.9100,230.3589,101.4408,258.6913,0,U,48981,999,23854,.76264664E-4,.42E-6,0
ONEWEB-0264,2021-060R,2026-06-09T04:54:40.122720,13.16594640,.0001886,87.9102,230.3694,93.7751,266.3595,0,U,48982,999,23854,.96850103E-4,.5E-6,0
ONEWEB-0266,2021-060T,2026-06-09T05:25:26.247072,13.16593871,.00021347,87.9101,230.3560,100.1048,260.0323,0,U,48984,999,23853,-.16643578E-3,-.51E-6,0
ONEWEB-0267,2021-060U,2026-06-09T05:41:24.082656,13.16594018,.00018337,87.9101,230.3502,97.0745,263.0594,0,U,48985,999,23854,-.99531217E-4,-.25E-6,0
ONEWEB-0268,2021-060V,2026-06-09T04:55:47.452512,13.16596173,.00020679,87.9104,230.3660,95.5650,264.5717,0,U,48986,999,23880,.63894476E-4,.37E-6,0
ONEWEB-0269,2021-060W,2026-06-09T04:28:26.546304,13.16594525,.00021996,87.9090,230.3731,95.7651,264.3731,0,U,48987,999,23857,.19227807E-3,.86E-6,0
ONEWEB-0270,2021-060X,2026-06-09T04:53:31.371648,13.16595048,.00017285,87.9102,230.3676,105.4213,254.7109,0,U,48988,999,23861,.13283343E-3,.64E-6,0
ONEWEB-0271,2021-060Y,2026-06-09T04:35:17.007648,13.16594495,.00017731,87.9100,230.3607,99.5874,260.5457,0,U,48989,999,23861,.24496187E-3,.106E-5,0
ONEWEB-0272,2021-060Z,2026-06-09T05:07:10.553376,13.16594335,.00019145,87.9101,230.3682,90.2027,269.9323,0,U,48990,999,23856,-.72566379E-3,-.265E-5,0
ONEWEB-0273,2021-060AA,2026-06-09T05:39:07.275168,13.16594121,.00019264,87.9102,230.3628,100.7865,259.3483,0,U,48991,999,23854,-.57029472E-4,-.9E-7,0
ONEWEB-0274,2021-060AB,2026-06-09T04:26:08.956896,13.16593956,.00020215,87.9092,230.3760,89.6602,270.4761,0,U,48992,999,23857,.46217309E-3,.19E-5,0
