ONEWEB-0236             
1 48797U 21045AG  26160.18981900  .00000185  00000+0  45786-3 0  9994
2 48797  87.9000 260.7998 0002069 103.3067 256.8295 13.15548047243205
ONEWEB-0248             
1 48798U 21045AH  26160.27853963  .00000144  00000+0  34862-3 0  9990
2 48798  87.9011 260.7649 0001586 112.3665 247.7634 13.15547205243377
ONEWEB-0225             
1 48799U 21045AJ  26160.30073851 -.00000070  00000+0 -22067-3 0  9999
2 48799  87.9007 260.7687 0001372 102.5539 257.5745 13.15548803243387
ONEWEB-0215             
1 48800U 21045AK  26160.27060668  .00000218  00000+0  54399-3 0  9995
2 48800  87.9013 260.7568 0001261 111.1268 248.9997 13.15550627243253
ONEWEB-0216             
1 48801U 21045AL  26160.28014167  .00000153  00000+0  37366-3 0  9993
2 48801  87.9010 260.7701 0001975  98.7649 261.3705 13.15548740243265
ONEWEB-0239             
1 48802U 21045AM  26160.28488920  .00000093  00000+0  21237-3 0  9999
2 48802  87.8999 260.7762 0001373 122.0518 238.0746 13.15548640243306
ONEWEB-0249             
1 48967U 21060A   26160.22520982 -.00000056  00000+0 -17958-3 0  9993
2 48967  87.9100 230.3592 0002064 102.0159 258.1203 13.16594978238563
ONEWEB-0250             
1 48968U 21060B   26160.23248385 -.00000009  00000+0 -51138-4 0  9996
2 48968  87.9102 228.1398 0002559 120.9071 239.2317 13.25833213239167
ONEWEB-0252             
1 48970U 21060D   26159.72410086 -.00000026  00000+0 -10037-3 0  9991
2 48970  87.9103 230.4506 0001975  92.3981 267.7376 13.16593087238545
ONEWEB-0253             
1 48971U 21060E   26159.94100751  .00000077  00000+0  16881-3 0  9998
2 48971  87.9098 230.4132 0002018 103.0543 257.0813 13.16593100238507
ONEWEB-0254             
1 48972U 21060F   26160.10250681  .00000079  00000+0  17186-3 0  9998
2 48972  87.9099 230.3784 0001824 107.1760 252.9570 13.16594179238524
ONEWEB-0255             
1 48973U 21060G   26160.21650220  .00000042  00000+0  75485-4 0  9991
2 48973  87.9100 230.3626 0001922 101.6127 258.5220 13.16594517238618
ONEWEB-0256             
1 48974U 21060H   26160.24261266  .00000033  00000+0  53088-4 0  9998
2 48974  87.9094 230.3619 0002117  96.6897 263.4475 13.16593242238584
ONEWEB-0257             
1 48975U 21060J   26160.19908075  .00000058  00000+0  11861-3 0  9998
2 48975  87.9101 230.3572 0001907  97.3887 262.7461 13.16594632238531
ONEWEB-0258             
1 48976U 21060K   26160.20066612  .00000078  00000+0  16952-3 0  9991
2 48976  87.9102 230.3686 0002048 100.6781 259.4580 13.16594356238546
ONEWEB-0259             
1 48977U 21060L   26160.19433724  .00000059  00000+0  11982-3 0  9999
2 48977  87.9101 230.3693 0001964 104.1919 255.9430 13.16594917238573
ONEWEB-0260             
1 48978U 21060M   26160.18561990  .00000134  00000+0  31624-3 0  9995
2 48978  87.9095 230.3730 0002095  88.1170 272.0201 13.16593807238555
ONEWEB-0261             
1 48979U 21060N   26160.23152806 -.00000046  00000+0 -15357-3 0  9993
2 48979  87.9097 230.3639 0001736  97.0082 263.1246 13.16595258238617
ONEWEB-0262             
1 48980U 21060P   26160.21175070  .00000020  00000+0  18545-4 0  9994
2 48980  87.9100 230.3533 0001978 107.3983 252.7365 13.16594562238578
ONEWEB-0263             
1 48981U 21060Q   26160.24341528  .00000042  00000+0  76265-4 0  9998
2 48981  87.9100 230.3589 0001691 101.4408 258.6913 13.16594515238548
ONEWEB-0264             
1 48982U 21060R   26160.20463105  .00000050  00000+0  96850-4 0  9992
2 48982  87.9102 230.3694 0001886  93.7751 266.3595 13.16594640238549
ONEWEB-0266             
1 48984U 21060T   26160.22599823 -.00000051  00000+0 -16644-3 0  9998
2 48984  87.9101 230.3560 0002134 100.1048 260.0323 13.16593871238535
ONEWEB-0267             
1 48985U 21060U   26160.23708429 -.00000025  00000+0 -99531-4 0  9992
2 48985  87.9101 230.3502 0001833  97.0745 263.0594 13.16594018238543
ONEWEB-0268             
1 48986U 21060V   26160.20541033  .00000037  00000+0  63894-4 0  9990
2 48986  87.9104 230.3660 0002067  95.5650 264.5717 13.16596173238806
ONEWEB-0269             
1 48987U 21060W   26160.18641836  .00000086  00000+0  19228-3 0  9995
2 48987  87.9090 230.3731 0002199  95.7651 264.3731 13.16594525238576
ONEWEB-0270             
1 48988U 21060X   26160.20383532  .00000064  00000+0  13283-3 0  9996
2 48988  87.9102 230.3676 0001728 105.4213 254.7109 13.16595048238617
ONEWEB-0271             
1 48989U 21060Y   26160.19116907  .00000106  00000+0  24496-3 0  9990
2 48989  87.9100 230.3607 0001773  99.5874 260.5457 13.16594495238612
ONEWEB-0272             
1 48990U 21060Z   26160.21331659 -.00000265  00000+0 -72566-3 0  9997
2 48990  87.9101 230.3682 0001914  90.2027 269.9323 13.16594335238565
ONEWEB-0273             
1 48991U 21060AA  26160.23550087 -.00000009  00000+0 -57029-4 0  9992
2 48991  87.9102 230.3628 0001926 100.7865 259.3483 13.16594121238548
ONEWEB-0274             
1 48992U 21060AB  26160.18482589  .00000190  00000+0  46217-3 0  9993
2 48992  87.9092 230.3760 0002021  89.6602 270.4761 13.16593956238576
